[{"OBJECT_NAME":"TRACERS 1","OBJECT_ID":"2025-154B","EPOCH":"2026-03-09T22:30:44.529696","MEAN_MOTION":14.93154596,"ECCENTRICITY":0.00045304,"INCLINATION":97.6795,"RA_OF_ASC_NODE":134.9733,"ARG_OF_PERICENTER":213.6392,"MEAN_ANOMALY":146.4541,"EPHEMERIS_TYPE":0,"CLASSIFICATION_TYPE":"U","NORAD_CAT_ID":64870,"ELEMENT_SET_NO":999,"REV_AT_EPOCH":3418,"BSTAR":0.00024898886,"MEAN_MOTION_DOT":2.543e-5,"MEAN_MOTION_DDOT":0},{"OBJECT_NAME":"SL-14 R\/B","OBJECT_ID":"1980-005B","EPOCH":"2026-03-09T17:27:50.322528","MEAN_MOTION":14.90930453,"ECCENTRICITY":0.00161932,"INCLINATION":82.5144,"RA_OF_ASC_NODE":307.2004,"ARG_OF_PERICENTER":158.1149,"MEAN_ANOMALY":202.0766,"EPHEMERIS_TYPE":0,"CLASSIFICATION_TYPE":"U","NORAD_CAT_ID":11672,"ELEMENT_SET_NO":999,"REV_AT_EPOCH":47649,"BSTAR":6.6729124e-5,"MEAN_MOTION_DOT":6.85e-6,"MEAN_MOTION_DDOT":0}]
